start=new Date('2022-11-08T00:00:00.000Z').valueOf();
sats=[{"MEAN_ANOMALY":"310.6600","INCLINATION":"53.2182","TLE_LINE2":"2 53281  53.2182 251.2001 0001753  49.4544 310.6600 15.08823994 17170","TLE_LINE1":"1 53281U 22086AR  22311.85002693  .00002079  00000-0  14873-3 0  9993","RCS_SIZE":"LARGE","ECCENTRICITY":"0.00017530","SEMIMAJOR_AXIS":"6917.929","MEAN_ELEMENT_THEORY":"SGP4","EPOCH":"2022-11-07T20:24:02.326752","REF_FRAME":"TEME","DECAY_DATE":null,"OBJECT_TYPE":"PAYLOAD","BSTAR":"0.00014873000000","CLASSIFICATION_TYPE":"U","NORAD_CAT_ID":"53281","MEAN_MOTION_DOT":"0.00002079","PERIOD":"95.439","OBJECT_NAME":"STARLINK-4182","MEAN_MOTION_DDOT":"0.0000000000000","SITE":"AFETR","EPHEMERIS_TYPE":"0","OBJECT_ID":"2022-086AR","RA_OF_ASC_NODE":"251.2001","TIME_SYSTEM":"UTC","REV_AT_EPOCH":"1717","COUNTRY_CODE":"US","APOAPSIS":"541.007","GP_ID":"217081908","ELEMENT_SET_NO":"999","LAUNCH_DATE":"2022-07-24","FILE":"3648097","PERIAPSIS":"538.582","MEAN_MOTION":"15.08823994","CENTER_NAME":"EARTH","ARG_OF_PERICENTER":"49.4544"},{"SITE":"AFETR","MEAN_MOTION_DOT":"-0.00000054","NORAD_CAT_ID":"53282","CLASSIFICATION_TYPE":"U","PERIOD":"95.438","OBJECT_NAME":"STARLINK-4164","MEAN_MOTION_DDOT":"0.0000000000000","RCS_SIZE":"LARGE","TLE_LINE1":"1 53282U 22086AS  22311.85738318 -.00000054  00000-0  14736-4 0  9995","SEMIMAJOR_AXIS":"6917.908","ECCENTRICITY":"0.00018580","MEAN_ELEMENT_THEORY":"SGP4","DECAY_DATE":null,"REF_FRAME":"TEME","EPOCH":"2022-11-07T20:34:37.906752","OBJECT_TYPE":"PAYLOAD","BSTAR":"0.00001473600000","INCLINATION":"53.2180","MEAN_ANOMALY":"304.8214","TLE_LINE2":"2 53282  53.2180 251.1807 0001858  55.2953 304.8214 15.08831074 17340","FILE":"3648233","CENTER_NAME":"EARTH","MEAN_MOTION":"15.08831074","PERIAPSIS":"538.487","ARG_OF_PERICENTER":"55.2953","APOAPSIS":"541.058","ELEMENT_SET_NO":"999","GP_ID":"217108776","LAUNCH_DATE":"2022-07-24","TIME_SYSTEM":"UTC","RA_OF_ASC_NODE":"251.1807","REV_AT_EPOCH":"1734","COUNTRY_CODE":"US","EPHEMERIS_TYPE":"0","OBJECT_ID":"2022-086AS"},{"LAUNCH_DATE":"2022-07-24","GP_ID":"217108949","ELEMENT_SET_NO":"999","APOAPSIS":"540.772","ARG_OF_PERICENTER":"35.6606","MEAN_MOTION":"15.08828237","PERIAPSIS":"538.791","CENTER_NAME":"EARTH","FILE":"3648233","OBJECT_ID":"2022-086AT","EPHEMERIS_TYPE":"0","COUNTRY_CODE":"US","REV_AT_EPOCH":"1734","TIME_SYSTEM":"UTC","RA_OF_ASC_NODE":"251.2152","OBJECT_NAME":"STARLINK-4175","MEAN_MOTION_DDOT":"0.0000000000000","PERIOD":"95.438","NORAD_CAT_ID":"53283","CLASSIFICATION_TYPE":"U","MEAN_MOTION_DOT":"-0.00001365","SITE":"AFETR","TLE_LINE2":"2 53283  53.2185 251.2152 0001432  35.6606 324.4481 15.08828237 17346","MEAN_ANOMALY":"324.4481","INCLINATION":"53.2185","OBJECT_TYPE":"PAYLOAD","BSTAR":"-0.00006771400000","EPOCH":"2022-11-07T20:18:43.887456","REF_FRAME":"TEME","DECAY_DATE":null,"MEAN_ELEMENT_THEORY":"SGP4","TLE_LINE1":"1 53283U 22086AT  22311.84634129 -.00001365  00000-0 -67714-4 0  9991","RCS_SIZE":"LARGE","SEMIMAJOR_AXIS":"6917.916","ECCENTRICITY":"0.00014320"},{"EPHEMERIS_TYPE":"0","OBJECT_ID":"2022-086AU","RA_OF_ASC_NODE":"251.1880","TIME_SYSTEM":"UTC","REV_AT_EPOCH":"1717","COUNTRY_CODE":"US","APOAPSIS":"541.053","ELEMENT_SET_NO":"999","GP_ID":"217081938","LAUNCH_DATE":"2022-07-24","FILE":"3648104","CENTER_NAME":"EARTH","MEAN_MOTION":"15.08821122","PERIAPSIS":"538.553","ARG_OF_PERICENTER":"54.8418","INCLINATION":"53.2191","MEAN_ANOMALY":"305.2743","TLE_LINE2":"2 53284  53.2191 251.1880 0001807  54.8418 305.2743 15.08821122 17176","RCS_SIZE":"LARGE","TLE_LINE1":"1 53284U 22086AU  22311.85370558  .00001348  00000-0  10283-3 0  9993","ECCENTRICITY":"0.00018070","SEMIMAJOR_AXIS":"6917.938","MEAN_ELEMENT_THEORY":"SGP4","DECAY_DATE":null,"EPOCH":"2022-11-07T20:29:20.162112","REF_FRAME":"TEME","BSTAR":"0.00010283000000","OBJECT_TYPE":"PAYLOAD","MEAN_MOTION_DOT":"0.00001348","NORAD_CAT_ID":"53284","CLASSIFICATION_TYPE":"U","PERIOD":"95.439","MEAN_MOTION_DDOT":"0.0000000000000","OBJECT_NAME":"STARLINK-4172","SITE":"AFETR"},{"MEAN_MOTION_DOT":"0.00004014","CLASSIFICATION_TYPE":"U","NORAD_CAT_ID":"53285","PERIOD":"95.438","OBJECT_NAME":"STARLINK-4173","MEAN_MOTION_DDOT":"0.0000000000000","SITE":"AFETR","INCLINATION":"53.2197","MEAN_ANOMALY":"304.1075","TLE_LINE2":"2 53285  53.2197 252.4526 0001868  56.0095 304.1075 15.08826045 17294","RCS_SIZE":"LARGE","TLE_LINE1":"1 53285U 22086AV  22311.57034007  .00004014  00000-0  27025-3 0  9994","SEMIMAJOR_AXIS":"6917.923","ECCENTRICITY":"0.00018680","MEAN_ELEMENT_THEORY":"SGP4","DECAY_DATE":null,"REF_FRAME":"TEME","EPOCH":"2022-11-07T13:41:17.382048","BSTAR":"0.00027025000000","OBJECT_TYPE":"PAYLOAD","APOAPSIS":"541.080","ELEMENT_SET_NO":"999","GP_ID":"217109124","LAUNCH_DATE":"2022-07-24","FILE":"3648233","CENTER_NAME":"EARTH","PERIAPSIS":"538.496","MEAN_MOTION":"15.08826045","ARG_OF_PERICENTER":"56.0095","EPHEMERIS_TYPE":"0","OBJECT_ID":"2022-086AV","RA_OF_ASC_NODE":"252.4526","TIME_SYSTEM":"UTC","REV_AT_EPOCH":"1729","COUNTRY_CODE":"US"},{"SITE":"AFETR","CLASSIFICATION_TYPE":"U","NORAD_CAT_ID":"53286","MEAN_MOTION_DOT":"0.00004165","PERIOD":"95.438","OBJECT_NAME":"STARLINK-4165","MEAN_MOTION_DDOT":"0.0000000000000","RCS_SIZE":"LARGE","TLE_LINE1":"1 53286U 22086AW  22311.84266780  .00004165  00000-0  27969-3 0  9994","SEMIMAJOR_AXIS":"6917.918","ECCENTRICITY":"0.00017070","MEAN_ELEMENT_THEORY":"SGP4","REF_FRAME":"TEME","EPOCH":"2022-11-07T20:13:26.497920","DECAY_DATE":null,"BSTAR":"0.00027969000000","OBJECT_TYPE":"PAYLOAD","MEAN_ANOMALY":"306.4023","INCLINATION":"53.2176","TLE_LINE2":"2 53286  53.2176 251.2305 0001707  53.7127 306.4023 15.08827708 17336","FILE":"3648233","MEAN_MOTION":"15.08827708","PERIAPSIS":"538.602","CENTER_NAME":"EARTH","ARG_OF_PERICENTER":"53.7127","APOAPSIS":"540.964","GP_ID":"217108359","ELEMENT_SET_NO":"999","LAUNCH_DATE":"2022-07-24","TIME_SYSTEM":"UTC","RA_OF_ASC_NODE":"251.2305","REV_AT_EPOCH":"1733","COUNTRY_CODE":"US","EPHEMERIS_TYPE":"0","OBJECT_ID":"2022-086AW"},{"TLE_LINE2":"2 53287  53.2182 252.4843 0001909  48.5569 311.5587 15.08825771 17295","MEAN_ANOMALY":"311.5587","INCLINATION":"53.2182","REF_FRAME":"TEME","EPOCH":"2022-11-07T13:30:42.251328","DECAY_DATE":null,"BSTAR":"0.00005182600000","OBJECT_TYPE":"PAYLOAD","TLE_LINE1":"1 53287U 22086AX  22311.56298902  .00000536  00000-0  51826-4 0  9993","RCS_SIZE":"LARGE","ECCENTRICITY":"0.00019090","SEMIMAJOR_AXIS":"6917.924","MEAN_ELEMENT_THEORY":"SGP4","MEAN_MOTION_DDOT":"0.0000000000000","OBJECT_NAME":"STARLINK-4107","NORAD_CAT_ID":"53287","CLASSIFICATION_TYPE":"U","MEAN_MOTION_DOT":"0.00000536","PERIOD":"95.438","SITE":"AFETR","OBJECT_ID":"2022-086AX","EPHEMERIS_TYPE":"0","COUNTRY_CODE":"US","TIME_SYSTEM":"UTC","RA_OF_ASC_NODE":"252.4843","REV_AT_EPOCH":"1729","LAUNCH_DATE":"2022-07-24","APOAPSIS":"541.110","GP_ID":"217108533","ELEMENT_SET_NO":"999","ARG_OF_PERICENTER":"48.5569","FILE":"3648233","PERIAPSIS":"538.468","MEAN_MOTION":"15.08825771","CENTER_NAME":"EARTH"},{"APOAPSIS":"540.910","GP_ID":"217108187","ELEMENT_SET_NO":"999","LAUNCH_DATE":"2022-07-24","FILE":"3648233","MEAN_MOTION":"15.08817317","PERIAPSIS":"538.720","CENTER_NAME":"EARTH","ARG_OF_PERICENTER":"55.8623","EPHEMERIS_TYPE":"0","OBJECT_ID":"2022-086AY","RA_OF_ASC_NODE":"252.1400","TIME_SYSTEM":"UTC","REV_AT_EPOCH":"1730","COUNTRY_CODE":"US","NORAD_CAT_ID":"53288","CLASSIFICATION_TYPE":"U","MEAN_MOTION_DOT":"0.00001653","PERIOD":"95.439","OBJECT_NAME":"STARLINK-4162","MEAN_MOTION_DDOT":"0.0000000000000","SITE":"AFETR","MEAN_ANOMALY":"304.2519","INCLINATION":"53.2181","TLE_LINE2":"2 53288  53.2181 252.1400 0001583  55.8623 304.2519 15.08817317 17304","TLE_LINE1":"1 53288U 22086AY  22311.64026646  .00001653  00000-0  12198-3 0  9996","ECCENTRICITY":"0.00015830","RCS_SIZE":"LARGE","SEMIMAJOR_AXIS":"6917.950","MEAN_ELEMENT_THEORY":"SGP4","REF_FRAME":"TEME","EPOCH":"2022-11-07T15:21:59.022144","DECAY_DATE":null,"OBJECT_TYPE":"PAYLOAD","BSTAR":"0.00012198000000"},{"COUNTRY_CODE":"US","REV_AT_EPOCH":"1731","TIME_SYSTEM":"UTC","RA_OF_ASC_NODE":"248.9150","OBJECT_ID":"2022-086AZ","EPHEMERIS_TYPE":"0","ARG_OF_PERICENTER":"72.5527","CENTER_NAME":"EARTH","PERIAPSIS":"538.922","MEAN_MOTION":"15.08823310","FILE":"3648233","LAUNCH_DATE":"2022-07-24","ELEMENT_SET_NO":"999","GP_ID":"217109399","APOAPSIS":"540.671","BSTAR":"0.00019468000000","OBJECT_TYPE":"PAYLOAD","DECAY_DATE":null,"REF_FRAME":"TEME","EPOCH":"2022-11-07T06:31:27.897888","MEAN_ELEMENT_THEORY":"SGP4","TLE_LINE1":"1 53289U 22086AZ  22311.27185067  .00002810  00000-0  19468-3 0  9992","RCS_SIZE":"LARGE","ECCENTRICITY":"0.00012640","SEMIMAJOR_AXIS":"6917.931","TLE_LINE2":"2 53289  53.2174 248.9150 0001264  72.5527 287.5604 15.08823310 17316","INCLINATION":"53.2174","MEAN_ANOMALY":"287.5604","SITE":"AFETR","OBJECT_NAME":"STARLINK-4176","MEAN_MOTION_DDOT":"0.0000000000000","PERIOD":"95.439","MEAN_MOTION_DOT":"0.00002810","NORAD_CAT_ID":"53289","CLASSIFICATION_TYPE":"U"},{"TLE_LINE2":"2 53290  53.2183 252.4705 0001828  59.8779 300.2394 15.08829864 17293","INCLINATION":"53.2183","MEAN_ANOMALY":"300.2394","DECAY_DATE":null,"REF_FRAME":"TEME","EPOCH":"2022-11-07T13:35:59.786880","OBJECT_TYPE":"PAYLOAD","BSTAR":"0.00007468500000","TLE_LINE1":"1 53290U 22086BA  22311.56666420  .00000900  00000-0  74685-4 0  9994","SEMIMAJOR_AXIS":"6917.911","RCS_SIZE":"LARGE","ECCENTRICITY":"0.00018280","MEAN_ELEMENT_THEORY":"SGP4","MEAN_MOTION_DDOT":"0.0000000000000","OBJECT_NAME":"STARLINK-4149","MEAN_MOTION_DOT":"0.00000900","NORAD_CAT_ID":"53290","CLASSIFICATION_TYPE":"U","PERIOD":"95.438","SITE":"AFETR","OBJECT_ID":"2022-086BA","EPHEMERIS_TYPE":"0","COUNTRY_CODE":"US","RA_OF_ASC_NODE":"252.4705","TIME_SYSTEM":"UTC","REV_AT_EPOCH":"1729","LAUNCH_DATE":"2022-07-24","APOAPSIS":"541.041","ELEMENT_SET_NO":"999","GP_ID":"217108777","ARG_OF_PERICENTER":"59.8779","FILE":"3648233","CENTER_NAME":"EARTH","PERIAPSIS":"538.512","MEAN_MOTION":"15.08829864"}];
